     3.02           N: GNSS NAV DATA    E: GALILEO          RINEX VERSION / TYPE
cnvtToRINEX 2.29.0  REGINA              04-Jan-16 00:25 UTC PGM / RUN BY / DATE 
----------------------------------------------------------- COMMENT             
GAL    0.8400D+02 -0.6367D+00  0.8881D-02                   IONOSPHERIC CORR    
GAUT -0.4656612873D-08 0.266453526D-14      0 1878          TIME SYSTEM CORR    
                                                            END OF HEADER       
E19 2016 01 03 12 40 00-0.986736267805D-05-0.126476606965D-11 0.000000000000D+00
     0.760000000000D+02 0.392187500000D+02 0.320263340254D-08-0.960334523205D+00
     0.185705721378D-05 0.258743297309D-03 0.993534922600D-05 0.544061804008D+04
     0.456000000000D+05 0.111758708954D-07 0.182851153454D+01 0.149011611938D-07
     0.958709589874D+00 0.125750000000D+03 0.234951820460D+01-0.548344269311D-08
    -0.203937066226D-09 0.258000000000D+03 0.187800000000D+04 0.000000000000D+00
     0.122000000000D+03 0.000000000000D+00 0.000000000000D+00 0.000000000000D+00
     0.463300000000D+05 0.000000000000D+00 0.000000000000D+00 0.000000000000D+00
E11 2016 01 03 12 40 00 0.120098120533D-04 0.110276232590D-10 0.000000000000D+00
     0.760000000000D+02-0.165000000000D+02 0.320120477160D-08 0.238728760121D+01
    -0.759959220886D-06 0.123805832118D-03 0.685825943947D-05 0.544061386299D+04
     0.456000000000D+05 0.186264514923D-07-0.268156178421D+00 0.130385160446D-07
     0.967922635394D+00 0.194750000000D+03-0.507939040214D+00-0.562880589093D-08
     0.411445709794D-09 0.258000000000D+03 0.187800000000D+04 0.000000000000D+00
     0.122000000000D+03 0.000000000000D+00 0.000000000000D+00 0.000000000000D+00
     0.463300000000D+05 0.000000000000D+00 0.000000000000D+00 0.000000000000D+00
E12 2016 01 03 12 40 00-0.218275992665D-03-0.148020262714D-09 0.000000000000D+00
     0.760000000000D+02-0.152500000000D+02 0.322906307487D-08-0.243001847570D+01
    -0.638887286186D-06 0.240917550400D-03 0.680238008499D-05 0.544061161995D+04
     0.456000000000D+05 0.353902578354D-07-0.268174909624D+00-0.149011611938D-07
     0.967934604990D+00 0.197656250000D+03-0.125539121963D+01-0.561094800422D-08
     0.396087927223D-09 0.258000000000D+03 0.187800000000D+04 0.000000000000D+00
     0.122000000000D+03 0.000000000000D+00 0.000000000000D+00 0.000000000000D+00
     0.463300000000D+05 0.000000000000D+00 0.000000000000D+00 0.000000000000D+00
E19 2016 01 03 12 50 00-0.986701343209D-05-0.152056145453D-11 0.000000000000D+00
     0.770000000000D+02 0.397187500000D+02 0.320834792628D-08-0.886230115316D+00
     0.187568366528D-05 0.258621177636D-03 0.990182161331D-05 0.544061775589D+04
     0.462000000000D+05 0.111758708954D-07 0.182850823858D+01 0.167638063431D-07
     0.958709465526D+00 0.126750000000D+03 0.234979894736D+01-0.548308553538D-08
    -0.202865593023D-09 0.513000000000D+03 0.187800000000D+04 0.000000000000D+00
     0.122000000000D+03 0.000000000000D+00 0.232830643654D-08 0.000000000000D+00
     0.468940000000D+05 0.000000000000D+00 0.000000000000D+00 0.000000000000D+00
E11 2016 01 03 12 50 00 0.120166805573D-04 0.112123643703D-10 0.000000000000D+00
     0.770000000000D+02-0.156875000000D+02 0.320227624480D-08 0.246196882160D+01
    -0.715255737305D-06 0.123904435895D-03 0.685267150402D-05 0.544061365128D+04
     0.462000000000D+05 0.186264514923D-07-0.268159568002D+00 0.130385160446D-07
     0.967922884090D+00 0.194843750000D+03-0.508234906618D+00-0.562809157546D-08
     0.411802867528D-09 0.513000000000D+03 0.187800000000D+04 0.000000000000D+00
     0.122000000000D+03 0.640000000000D+02-0.977888703346D-08 0.000000000000D+00
     0.468940000000D+05 0.000000000000D+00 0.000000000000D+00 0.000000000000D+00
E12 2016 01 03 12 50 00-0.218363828026D-03-0.147892365021D-09 0.000000000000D+00
     0.770000000000D+02-0.152812500000D+02 0.320406203347D-08-0.235551604877D+01
    -0.642612576485D-06 0.240906956606D-03 0.678747892380D-05 0.544061168289D+04
     0.462000000000D+05 0.856816768646D-07-0.268178446960D+00-0.409781932831D-07
     0.967935064346D+00 0.197906250000D+03-0.125550803949D+01-0.556630328745D-08
     0.402159608705D-09 0.513000000000D+03 0.187800000000D+04 0.000000000000D+00
     0.122000000000D+03 0.000000000000D+00-0.558793544769D-08 0.000000000000D+00
     0.468940000000D+05 0.000000000000D+00 0.000000000000D+00 0.000000000000D+00
E11 2016 01 03 12 50 00 0.120166805573D-04 0.112123643703D-10 0.000000000000D+00
     0.770000000000D+02-0.156875000000D+02 0.320227624480D-08 0.246196882160D+01
    -0.715255737305D-06 0.123904435895D-03 0.685267150402D-05 0.544061365128D+04
     0.462000000000D+05 0.186264514923D-07-0.268159568002D+00 0.130385160446D-07
     0.967922884090D+00 0.194843750000D+03-0.508234906618D+00-0.562809157546D-08
     0.411802867528D-09 0.516000000000D+03 0.187800000000D+04 0.000000000000D+00
     0.122000000000D+03 0.640000000000D+02-0.977888703346D-08 0.000000000000D+00
     0.468850000000D+05 0.000000000000D+00 0.000000000000D+00 0.000000000000D+00
E19 2016 01 03 12 50 00-0.986701343209D-05-0.152056145453D-11 0.000000000000D+00
     0.770000000000D+02 0.397187500000D+02 0.320834792628D-08-0.886230115316D+00
     0.187568366528D-05 0.258621177636D-03 0.990182161331D-05 0.544061775589D+04
     0.462000000000D+05 0.111758708954D-07 0.182850823858D+01 0.167638063431D-07
     0.958709465526D+00 0.126750000000D+03 0.234979894736D+01-0.548308553538D-08
    -0.202865593023D-09 0.516000000000D+03 0.187800000000D+04 0.000000000000D+00
     0.122000000000D+03 0.000000000000D+00 0.232830643654D-08 0.000000000000D+00
     0.468850000000D+05 0.000000000000D+00 0.000000000000D+00 0.000000000000D+00
E12 2016 01 03 12 50 00-0.218363828026D-03-0.147892365021D-09 0.000000000000D+00
     0.770000000000D+02-0.152812500000D+02 0.320406203347D-08-0.235551604877D+01
    -0.642612576485D-06 0.240906956606D-03 0.678747892380D-05 0.544061168289D+04
     0.462000000000D+05 0.856816768646D-07-0.268178446960D+00-0.409781932831D-07
     0.967935064346D+00 0.197906250000D+03-0.125550803949D+01-0.556630328745D-08
     0.402159608705D-09 0.516000000000D+03 0.187800000000D+04 0.000000000000D+00
     0.122000000000D+03 0.000000000000D+00-0.558793544769D-08 0.000000000000D+00
     0.468850000000D+05 0.000000000000D+00 0.000000000000D+00 0.000000000000D+00
E19 2016 01 03 12 50 00-0.986811937764D-05-0.127897692437D-11 0.000000000000D+00
     0.770000000000D+02 0.397187500000D+02 0.320834792628D-08-0.886230115316D+00
     0.187568366528D-05 0.258621177636D-03 0.990182161331D-05 0.544061775589D+04
     0.462000000000D+05 0.111758708954D-07 0.182850823858D+01 0.167638063431D-07
     0.958709465526D+00 0.126750000000D+03 0.234979894736D+01-0.548308553538D-08
    -0.202865593023D-09 0.258000000000D+03 0.187800000000D+04 0.000000000000D+00
     0.122000000000D+03 0.000000000000D+00 0.000000000000D+00 0.000000000000D+00
     0.469300000000D+05 0.000000000000D+00 0.000000000000D+00 0.000000000000D+00
E11 2016 01 03 12 50 00 0.120165059343D-04 0.110276232590D-10 0.000000000000D+00
     0.770000000000D+02-0.156875000000D+02 0.320227624480D-08 0.246196882160D+01
    -0.715255737305D-06 0.123904435895D-03 0.685267150402D-05 0.544061365128D+04
     0.462000000000D+05 0.186264514923D-07-0.268159568002D+00 0.130385160446D-07
     0.967922884090D+00 0.194843750000D+03-0.508234906618D+00-0.562809157546D-08
     0.411802867528D-09 0.258000000000D+03 0.187800000000D+04 0.000000000000D+00
     0.122000000000D+03 0.000000000000D+00 0.000000000000D+00 0.000000000000D+00
     0.469300000000D+05 0.000000000000D+00 0.000000000000D+00 0.000000000000D+00
E12 2016 01 03 12 50 00-0.218364526518D-03-0.148020262714D-09 0.000000000000D+00
     0.770000000000D+02-0.152812500000D+02 0.320406203347D-08-0.235551604877D+01
    -0.642612576485D-06 0.240906956606D-03 0.678747892380D-05 0.544061168289D+04
     0.462000000000D+05 0.856816768646D-07-0.268178446960D+00-0.409781932831D-07
     0.967935064346D+00 0.197906250000D+03-0.125550803949D+01-0.556630328745D-08
     0.402159608705D-09 0.258000000000D+03 0.187800000000D+04 0.000000000000D+00
     0.122000000000D+03 0.000000000000D+00 0.000000000000D+00 0.000000000000D+00
     0.469300000000D+05 0.000000000000D+00 0.000000000000D+00 0.000000000000D+00
E19 2016 01 03 13 00 00-0.986777013168D-05-0.142108547152D-11 0.000000000000D+00
     0.780000000000D+02 0.400625000000D+02 0.321227666136D-08-0.811960557142D+00
     0.188685953617D-05 0.258558779024D-03 0.989064574242D-05 0.544061761284D+04
     0.468000000000D+05 0.111758708954D-07 0.182850494848D+01 0.167638063431D-07
     0.958709344104D+00 0.127156250000D+03 0.234991458957D+01-0.548308553538D-08
    -0.202508435289D-09 0.513000000000D+03 0.187800000000D+04 0.000000000000D+00
     0.122000000000D+03 0.000000000000D+00 0.232830643654D-08 0.000000000000D+00
     0.474940000000D+05 0.000000000000D+00 0.000000000000D+00 0.000000000000D+00
E11 2016 01 03 13 00 00 0.120233744383D-04 0.111697318061D-10 0.000000000000D+00
     0.780000000000D+02-0.150000000000D+02 0.320299056027D-08 0.253654341575D+01
    -0.676140189171D-06 0.123990001157D-03 0.685453414917D-05 0.544061347198D+04
     0.468000000000D+05 0.186264514923D-07-0.268162940029D+00 0.130385160446D-07
     0.967923129861D+00 0.194843750000D+03-0.508424140923D+00-0.562809157546D-08
     0.411802867528D-09 0.513000000000D+03 0.187800000000D+04 0.000000000000D+00
     0.122000000000D+03 0.640000000000D+02-0.977888703346D-08 0.000000000000D+00
     0.474940000000D+05 0.000000000000D+00 0.000000000000D+00 0.000000000000D+00
